     3.05           N: GNSS NAV DATA    G: GPS              RINEX VERSION / TYPE
gl_Rinex            NMA                 20241027 002802 UTC PGM / RUN BY / DATE 
GPSA   3.4459E-08  7.4506E-09 -1.1921E-07  5.9605E-08 A     IONOSPHERIC CORR    
GPSB   1.4131E+05 -3.2768E+04 -1.3107E+05 -6.5536E+04 A     IONOSPHERIC CORR    
GPUT  9.3132257462E-10 1.776356839E-15  61440 2338        2 TIME SYSTEM CORR    
    18                  GPS                                 LEAP SECONDS        
                                                            END OF HEADER       
G07 2024 10 27 00 00 00-2.437783405185E-05 2.955857780762E-12 0.000000000000E+00
     7.400000000000E+01-7.031250000000E+00 4.538046170695E-09-2.227615610983E+00
    -6.426125764847E-07 1.879597187508E-02 1.039728522301E-05 5.153601554871E+03
     0.000000000000E+00 2.030283212662E-07 2.409108737437E+00-7.264316082001E-08
     9.504991801289E-01 1.667187500000E+02-2.096529487680E+00-7.688534544039E-09
     3.125130174216E-10 1.000000000000E+00 2.338000000000E+03 0.000000000000E+00
     2.000000000000E+00 0.000000000000E+00-1.071020960808E-08 7.400000000000E+01
    -7.182000000000E+03 4.000000000000E+00                                      
G27 2024 10 27 00 00 00-3.470759838820E-05-1.136868377216E-13 0.000000000000E+00
     8.400000000000E+01-1.725000000000E+01 4.919133473083E-09 6.316335724279E-01
    -6.686896085739E-07 1.274544175249E-02 5.755573511124E-06 5.153681131363E+03
     0.000000000000E+00-9.685754776001E-08-1.789184645122E+00 1.192092895508E-07
     9.596069321205E-01 2.670937500000E+02 7.993956239793E-01-8.486067764499E-09
    -4.939491463932E-10 1.000000000000E+00 2.338000000000E+03 0.000000000000E+00
     2.000000000000E+00 0.000000000000E+00 1.862645149231E-09 8.400000000000E+01
    -7.152000000000E+03 4.000000000000E+00                                      
G30 2024 10 27 00 00 00-2.944394946098E-04 7.617018127348E-12 0.000000000000E+00
     8.400000000000E+01-9.187500000000E+00 4.910561687462E-09-2.353518271746E+00
    -8.009373573259E-07 7.129979785532E-03 1.098029315472E-05 5.153792615891E+03
     0.000000000000E+00 3.166496753693E-08 2.407443102800E+00-6.519258022308E-08
     9.356568755788E-01 1.543125000000E+02-2.461491060354E+00-8.055692694793E-09
     2.303667385565E-10 1.000000000000E+00 2.338000000000E+03 0.000000000000E+00
     2.000000000000E+00 0.000000000000E+00 3.725290298462E-09 8.400000000000E+01
    -6.012000000000E+03 4.000000000000E+00                                      
G13 2024 10 27 00 00 00 6.833188235760E-04 1.705302565824E-12 0.000000000000E+00
     1.800000000000E+01-7.262500000000E+01 4.318394164165E-09 2.574653676660E-01
    -3.844499588013E-06 8.744327002205E-03 7.255002856255E-06 5.153692373276E+03
     0.000000000000E+00-7.450580596924E-08 1.504464259295E+00 1.527369022369E-07
     9.719792062868E-01 2.476562500000E+02 9.716453844732E-01-8.136053184987E-09
    -1.821504444400E-10 1.000000000000E+00 2.338000000000E+03 0.000000000000E+00
     2.000000000000E+00 0.000000000000E+00-1.164153218269E-08 1.800000000000E+01
    -5.382000000000E+03 4.000000000000E+00                                      
G26 2024 10 26 23 59 44 4.565669223666E-05-9.777068044059E-12 0.000000000000E+00
     4.900000000000E+01 5.762500000000E+01 5.455227232111E-09 2.417460759116E+00
     2.998858917636E-06 9.438758133911E-03 7.137656211853E-06 5.153719366074E+03
     6.047840000000E+05-1.657754182816E-07-2.791640443396E+00-1.471489667892E-07
     9.306365898466E-01 2.270000000000E+02 5.687827759714E-01-8.357133822454E-09
     3.342996392075E-10 1.000000000000E+00 2.337000000000E+03 0.000000000000E+00
     2.000000000000E+00 0.000000000000E+00 6.519258022308E-09 4.900000000000E+01
     6.004980000000E+05 4.000000000000E+00                                      
G15 2024 10 27 00 00 00 2.204547636211E-04 4.433786671143E-12 0.000000000000E+00
     2.400000000000E+01-6.112500000000E+01 5.294863409457E-09-4.360522127878E-01
    -3.064051270485E-06 1.617991051171E-02 5.096197128296E-06 5.153715124130E+03
     0.000000000000E+00-1.247972249985E-07 1.204336835726E+00 2.142041921616E-07
     9.365201844991E-01 2.714687500000E+02 1.370774985915E+00-8.859297596734E-09
     2.857261873569E-12 1.000000000000E+00 2.338000000000E+03 0.000000000000E+00
     2.000000000000E+00 0.000000000000E+00-1.024454832077E-08 2.400000000000E+01
    -3.984000000000E+03 4.000000000000E+00                                      
G23 2024 10 27 00 00 00 3.502080217004E-04 8.071765478235E-12 0.000000000000E+00
     8.000000000000E+00 3.828125000000E+01 3.995523572452E-09-2.578414604975E+00
     1.993030309677E-06 4.838802502491E-03 5.867332220078E-06 5.153616436005E+03
     0.000000000000E+00-7.078051567078E-08 2.875019153574E-01-3.352761268616E-08
     9.815988713502E-01 2.775312500000E+02-2.923725938704E+00-7.917472651659E-09
     3.525146836515E-10 1.000000000000E+00 2.338000000000E+03 0.000000000000E+00
     2.000000000000E+00 0.000000000000E+00-8.381903171539E-09 8.000000000000E+00
    -3.912000000000E+03 4.000000000000E+00                                      
G08 2024 10 27 00 00 00 3.962139599025E-04 1.102762325900E-11 0.000000000000E+00
     4.900000000000E+01-1.618750000000E+01 5.096283709244E-09 5.761360839576E-01
    -6.854534149170E-07 9.840365266427E-03 5.327165126801E-06 5.153699024200E+03
     0.000000000000E+00 2.607703208923E-08-1.816987376886E+00 1.043081283569E-07
     9.505736923984E-01 2.669375000000E+02 3.743822808790E-01-8.520712064716E-09
    -4.632335812523E-10 1.000000000000E+00 2.338000000000E+03 0.000000000000E+00
     2.000000000000E+00 0.000000000000E+00 4.656612873077E-09 4.900000000000E+01
    -2.928000000000E+03 4.000000000000E+00                                      
